[{"OBJECT_NAME":"STARLINK-31267","OBJECT_ID":"2024-068P","EPOCH":"2025-11-21T21:10:19.162272","MEAN_MOTION":15.27582656,"ECCENTRICITY":0.00012321,"INCLINATION":43.0038,"RA_OF_ASC_NODE":279.1402,"ARG_OF_PERICENTER":256.9035,"MEAN_ANOMALY":103.1679,"EPHEMERIS_TYPE":0,"CLASSIFICATION_TYPE":"U","NORAD_CAT_ID":59468,"ELEMENT_SET_NO":999,"REV_AT_EPOCH":9208,"BSTAR":1.4875729e-5,"MEAN_MOTION_DOT":1.47e-6,"MEAN_MOTION_DDOT":0},{"OBJECT_NAME":"STARLINK-31381","OBJECT_ID":"2024-068Q","EPOCH":"2025-11-21T22:42:51.083712","MEAN_MOTION":15.27570617,"ECCENTRICITY":0.0002136,"INCLINATION":43.0057,"RA_OF_ASC_NODE":279.6379,"ARG_OF_PERICENTER":269.146,"MEAN_ANOMALY":90.9147,"EPHEMERIS_TYPE":0,"CLASSIFICATION_TYPE":"U","NORAD_CAT_ID":59469,"ELEMENT_SET_NO":999,"REV_AT_EPOCH":9208,"BSTAR":-6.2577724e-5,"MEAN_MOTION_DOT":-1.984e-5,"MEAN_MOTION_DDOT":0},{"OBJECT_NAME":"STARLINK-31546","OBJECT_ID":"2024-068R","EPOCH":"2025-11-22T06:05:52.161216","MEAN_MOTION":15.27585236,"ECCENTRICITY":2.651e-5,"INCLINATION":43.0005,"RA_OF_ASC_NODE":277.6467,"ARG_OF_PERICENTER":351.7792,"MEAN_ANOMALY":8.3055,"EPHEMERIS_TYPE":0,"CLASSIFICATION_TYPE":"U","NORAD_CAT_ID":59470,"ELEMENT_SET_NO":999,"REV_AT_EPOCH":9213,"BSTAR":0.00027802074,"MEAN_MOTION_DOT":7.398e-5,"MEAN_MOTION_DDOT":0},{"OBJECT_NAME":"STARLINK-31575","OBJECT_ID":"2024-068S","EPOCH":"2025-11-22T06:16:58.091808","MEAN_MOTION":15.27597818,"ECCENTRICITY":9.883e-5,"INCLINATION":43.0031,"RA_OF_ASC_NODE":277.7058,"ARG_OF_PERICENTER":340.881,"MEAN_ANOMALY":19.2005,"EPHEMERIS_TYPE":0,"CLASSIFICATION_TYPE":"U","NORAD_CAT_ID":59471,"ELEMENT_SET_NO":999,"REV_AT_EPOCH":9213,"BSTAR":-1.6517972e-5,"MEAN_MOTION_DOT":-7.17e-6,"MEAN_MOTION_DDOT":0},{"OBJECT_NAME":"STARLINK-31610","OBJECT_ID":"2024-068U","EPOCH":"2025-11-22T06:03:18.739008","MEAN_MOTION":15.2758442,"ECCENTRICITY":5.29e-5,"INCLINATION":43.0003,"RA_OF_ASC_NODE":281.0857,"ARG_OF_PERICENTER":292.142,"MEAN_ANOMALY":67.9375,"EPHEMERIS_TYPE":0,"CLASSIFICATION_TYPE":"U","NORAD_CAT_ID":59473,"ELEMENT_SET_NO":999,"REV_AT_EPOCH":9209,"BSTAR":5.3828596e-5,"MEAN_MOTION_DOT":1.22e-5,"MEAN_MOTION_DDOT":0},{"OBJECT_NAME":"STARLINK-31581","OBJECT_ID":"2024-068V","EPOCH":"2025-11-22T06:02:50.989920","MEAN_MOTION":15.27593952,"ECCENTRICITY":9.317e-5,"INCLINATION":43.0006,"RA_OF_ASC_NODE":274.1524,"ARG_OF_PERICENTER":244.0759,"MEAN_ANOMALY":115.9996,"EPHEMERIS_TYPE":0,"CLASSIFICATION_TYPE":"U","NORAD_CAT_ID":59474,"ELEMENT_SET_NO":999,"REV_AT_EPOCH":9217,"BSTAR":0.00012144379,"MEAN_MOTION_DOT":3.083e-5,"MEAN_MOTION_DDOT":0},{"OBJECT_NAME":"STARLINK-31566","OBJECT_ID":"2024-068W","EPOCH":"2025-11-22T06:08:51.965664","MEAN_MOTION":15.27584929,"ECCENTRICITY":5.609e-5,"INCLINATION":43.0002,"RA_OF_ASC_NODE":281.1113,"ARG_OF_PERICENTER":215.5608,"MEAN_ANOMALY":144.5206,"EPHEMERIS_TYPE":0,"CLASSIFICATION_TYPE":"U","NORAD_CAT_ID":59475,"ELEMENT_SET_NO":999,"REV_AT_EPOCH":9209,"BSTAR":6.2706566e-5,"MEAN_MOTION_DOT":1.464e-5,"MEAN_MOTION_DDOT":0},{"OBJECT_NAME":"STARLINK-31515","OBJECT_ID":"2024-068X","EPOCH":"2025-11-22T06:19:57.870336","MEAN_MOTION":15.27600515,"ECCENTRICITY":7.269e-5,"INCLINATION":43.001,"RA_OF_ASC_NODE":281.1737,"ARG_OF_PERICENTER":249.1256,"MEAN_ANOMALY":110.9518,"EPHEMERIS_TYPE":0,"CLASSIFICATION_TYPE":"U","NORAD_CAT_ID":59476,"ELEMENT_SET_NO":999,"REV_AT_EPOCH":9209,"BSTAR":0.00037199158,"MEAN_MOTION_DOT":9.995e-5,"MEAN_MOTION_DDOT":0},{"OBJECT_NAME":"STARLINK-31531","OBJECT_ID":"2024-068Y","EPOCH":"2025-11-23T01:50:56.203296","MEAN_MOTION":15.27558042,"ECCENTRICITY":0.0003677,"INCLINATION":42.999,"RA_OF_ASC_NODE":221.4527,"ARG_OF_PERICENTER":47.6164,"MEAN_ANOMALY":312.4999,"EPHEMERIS_TYPE":0,"CLASSIFICATION_TYPE":"U","NORAD_CAT_ID":59477,"ELEMENT_SET_NO":999,"REV_AT_EPOCH":9284,"BSTAR":-5.2158e-5,"MEAN_MOTION_DOT":-1.698e-5,"MEAN_MOTION_DDOT":0},{"OBJECT_NAME":"STARLINK-31753","OBJECT_ID":"2024-071A","EPOCH":"2025-11-23T02:27:56.231424","MEAN_MOTION":15.275665,"ECCENTRICITY":6.18e-5,"INCLINATION":43.0002,"RA_OF_ASC_NODE":221.7733,"ARG_OF_PERICENTER":316.4949,"MEAN_ANOMALY":43.5853,"EPHEMERIS_TYPE":0,"CLASSIFICATION_TYPE":"U","NORAD_CAT_ID":59484,"ELEMENT_SET_NO":999,"REV_AT_EPOCH":9190,"BSTAR":-0.00011364,"MEAN_MOTION_DOT":-3.386e-5,"MEAN_MOTION_DDOT":0},{"OBJECT_NAME":"STARLINK-31733","OBJECT_ID":"2024-071C","EPOCH":"2025-11-22T03:47:12.677568","MEAN_MOTION":15.27562471,"ECCENTRICITY":9.605e-5,"INCLINATION":42.9989,"RA_OF_ASC_NODE":226.715,"ARG_OF_PERICENTER":264.4651,"MEAN_ANOMALY":95.6091,"EPHEMERIS_TYPE":0,"CLASSIFICATION_TYPE":"U","NORAD_CAT_ID":59486,"ELEMENT_SET_NO":999,"REV_AT_EPOCH":9176,"BSTAR":-4.4433065e-5,"MEAN_MOTION_DOT":-1.484e-5,"MEAN_MOTION_DDOT":0},{"OBJECT_NAME":"STARLINK-31657","OBJECT_ID":"2024-071D","EPOCH":"2025-11-23T02:09:27.194112","MEAN_MOTION":15.27556377,"ECCENTRICITY":4.17e-5,"INCLINATION":43.0026,"RA_OF_ASC_NODE":221.6732,"ARG_OF_PERICENTER":269.2336,"MEAN_ANOMALY":90.8468,"EPHEMERIS_TYPE":0,"CLASSIFICATION_TYPE":"U","NORAD_CAT_ID":59487,"ELEMENT_SET_NO":999,"REV_AT_EPOCH":9190,"BSTAR":-6.5145e-5,"MEAN_MOTION_DOT":-2.052e-5,"MEAN_MOTION_DDOT":0},{"OBJECT_NAME":"STARLINK-31754","OBJECT_ID":"2024-071E","EPOCH":"2025-11-23T01:55:18.339168","MEAN_MOTION":15.27566977,"ECCENTRICITY":0.0001591,"INCLINATION":43.0025,"RA_OF_ASC_NODE":229.3836,"ARG_OF_PERICENTER":259.6857,"MEAN_ANOMALY":100.3815,"EPHEMERIS_TYPE":0,"CLASSIFICATION_TYPE":"U","NORAD_CAT_ID":59488,"ELEMENT_SET_NO":999,"REV_AT_EPOCH":9181,"BSTAR":-9.0239e-5,"MEAN_MOTION_DOT":-2.744e-5,"MEAN_MOTION_DDOT":0},{"OBJECT_NAME":"STARLINK-31638","OBJECT_ID":"2024-071F","EPOCH":"2025-11-23T02:07:34.307328","MEAN_MOTION":15.27575193,"ECCENTRICITY":0.0002199,"INCLINATION":43.0014,"RA_OF_ASC_NODE":221.6598,"ARG_OF_PERICENTER":278.0378,"MEAN_ANOMALY":82.0224,"EPHEMERIS_TYPE":0,"CLASSIFICATION_TYPE":"U","NORAD_CAT_ID":59489,"ELEMENT_SET_NO":999,"REV_AT_EPOCH":9190,"BSTAR":3.8538e-5,"MEAN_MOTION_DOT":7.98e-6,"MEAN_MOTION_DDOT":0},{"OBJECT_NAME":"STARLINK-31670","OBJECT_ID":"2024-071G","EPOCH":"2025-11-22T03:02:55.846464","MEAN_MOTION":15.2760606,"ECCENTRICITY":8.383e-5,"INCLINATION":42.999,"RA_OF_ASC_NODE":238.6093,"ARG_OF_PERICENTER":241.1163,"MEAN_ANOMALY":118.9604,"EPHEMERIS_TYPE":0,"CLASSIFICATION_TYPE":"U","NORAD_CAT_ID":59490,"ELEMENT_SET_NO":999,"REV_AT_EPOCH":9162,"BSTAR":-4.965251e-5,"MEAN_MOTION_DOT":-1.629e-5,"MEAN_MOTION_DDOT":0},{"OBJECT_NAME":"STARLINK-31712","OBJECT_ID":"2024-071H","EPOCH":"2025-11-23T02:37:09.587136","MEAN_MOTION":15.27568293,"ECCENTRICITY":4.89e-5,"INCLINATION":42.9987,"RA_OF_ASC_NODE":233.0619,"ARG_OF_PERICENTER":322.2704,"MEAN_ANOMALY":37.8113,"EPHEMERIS_TYPE":0,"CLASSIFICATION_TYPE":"U","NORAD_CAT_ID":59491,"ELEMENT_SET_NO":999,"REV_AT_EPOCH":9177,"BSTAR":-9.0397e-5,"MEAN_MOTION_DOT":-2.747e-5,"MEAN_MOTION_DDOT":0}]
