[{"norad_id":"59468","company":"STARLINK","tle_line2":"2 59468  43.0038 279.1402 0001232 256.9035 103.1679 15.27582656 92088","launch_date":"2024-04-10","type":"LEO","tle_line1":"1 59468U 24068P   25325.88216623  .00000147  00000+0  14876-4 0  9996","satellite_name":"STARLINK-31267"},{"norad_id":"59469","company":"STARLINK","tle_line2":"2 59469  43.0057 279.6379 0002136 269.1460  90.9147 15.27570617 92087","launch_date":"2024-04-10","type":"LEO","tle_line1":"1 59469U 24068Q   25325.94642458 -.00001984  00000+0 -62578-4 0  9997","satellite_name":"STARLINK-31381"},{"norad_id":"59470","company":"STARLINK","tle_line2":"2 59470  43.0005 277.6467 0000265 351.7792   8.3055 15.27585236 92135","launch_date":"2024-04-10","type":"LEO","tle_line1":"1 59470U 24068R   25326.25407594  .00007398  00000+0  27802-3 0  9997","satellite_name":"STARLINK-31546"},{"norad_id":"59471","company":"STARLINK","tle_line2":"2 59471  43.0031 277.7058 0000988 340.8810  19.2005 15.27597818 92139","launch_date":"2024-04-10","type":"LEO","tle_line1":"1 59471U 24068S   25326.26178347 -.00000717  00000+0 -16518-4 0  9993","satellite_name":"STARLINK-31575"},{"norad_id":"59473","company":"STARLINK","tle_line2":"2 59473  43.0003 281.0857 0000529 292.1420  67.9375 15.27584420 92092","launch_date":"2024-04-10","type":"LEO","tle_line1":"1 59473U 24068U   25326.25230022  .00001220  00000+0  53829-4 0  9997","satellite_name":"STARLINK-31610"},{"norad_id":"59474","company":"STARLINK","tle_line2":"2 59474  43.0006 274.1524 0000931 244.0759 115.9996 15.27593952 92170","launch_date":"2024-04-10","type":"LEO","tle_line1":"1 59474U 24068V   25326.25197905  .00003083  00000+0  12144-3 0  9993","satellite_name":"STARLINK-31581"},{"norad_id":"59475","company":"STARLINK","tle_line2":"2 59475  43.0002 281.1113 0000560 215.5608 144.5206 15.27584929 92090","launch_date":"2024-04-10","type":"LEO","tle_line1":"1 59475U 24068W   25326.25615701  .00001464  00000+0  62707-4 0  9995","satellite_name":"STARLINK-31566"},{"norad_id":"59476","company":"STARLINK","tle_line2":"2 59476  43.0010 281.1737 0000726 249.1256 110.9518 15.27600515 92091","launch_date":"2024-04-10","type":"LEO","tle_line1":"1 59476U 24068X   25326.26386424  .00009995  00000+0  37199-3 0  9997","satellite_name":"STARLINK-31515"},{"norad_id":"59477","company":"STARLINK","tle_line2":"2 59477  42.9990 221.4527 0003677  47.6164 312.4999 15.27558042 92840","launch_date":"2024-04-10","type":"LEO","tle_line1":"1 59477U 24068Y   25327.07703939 -.00001698  00000+0 -52158-4 0  9999","satellite_name":"STARLINK-31531"},{"norad_id":"59484","company":"STARLINK","tle_line2":"2 59484  43.0002 221.7733 0000618 316.4949  43.5853 15.27566500 91901","launch_date":"2024-04-13","type":"LEO","tle_line1":"1 59484U 24071A   25327.10273416 -.00003386  00000+0 -11364-3 0  9996","satellite_name":"STARLINK-31753"},{"norad_id":"59486","company":"STARLINK","tle_line2":"2 59486  42.9989 226.7150 0000960 264.4651  95.6091 15.27562471 91764","launch_date":"2024-04-13","type":"LEO","tle_line1":"1 59486U 24071C   25326.15778562 -.00001484  00000+0 -44433-4 0  9995","satellite_name":"STARLINK-31733"},{"norad_id":"59487","company":"STARLINK","tle_line2":"2 59487  43.0026 221.6732 0000417 269.2336  90.8468 15.27556377 91908","launch_date":"2024-04-13","type":"LEO","tle_line1":"1 59487U 24071D   25327.08989808 -.00002052  00000+0 -65145-4 0  9991","satellite_name":"STARLINK-31657"},{"norad_id":"59488","company":"STARLINK","tle_line2":"2 59488  43.0025 229.3836 0001591 259.6857 100.3815 15.27566977 91813","launch_date":"2024-04-13","type":"LEO","tle_line1":"1 59488U 24071E   25327.08007337 -.00002744  00000+0 -90239-4 0  9990","satellite_name":"STARLINK-31754"},{"norad_id":"59489","company":"STARLINK","tle_line2":"2 59489  43.0014 221.6598 0002199 278.0378  82.0224 15.27575193 91900","launch_date":"2024-04-13","type":"LEO","tle_line1":"1 59489U 24071F   25327.08859152  .00000798  00000+0  38538-4 0  9990","satellite_name":"STARLINK-31638"},{"norad_id":"59490","company":"STARLINK","tle_line2":"2 59490  42.9990 238.6093 0000838 241.1163 118.9604 15.27606060 91620","launch_date":"2024-04-13","type":"LEO","tle_line1":"1 59490U 24071G   25326.12703526 -.00001629  00000+0 -49653-4 0  9995","satellite_name":"STARLINK-31670"},{"norad_id":"59491","company":"STARLINK","tle_line2":"2 59491  42.9987 233.0619 0000489 322.2704  37.8113 15.27568293 91779","launch_date":"2024-04-13","type":"LEO","tle_line1":"1 59491U 24071H   25327.10913874 -.00002747  00000+0 -90397-4 0  9997","satellite_name":"STARLINK-31712"}]